OBJECT_NAME,OBJECT_ID,EPOCH,MEAN_MOTION,ECCENTRICITY,INCLINATION,RA_OF_ASC_NODE,ARG_OF_PERICENTER,MEAN_ANOMALY,EPHEMERIS_TYPE,CLASSIFICATION_TYPE,NORAD_CAT_ID,ELEMENT_SET_NO,REV_AT_EPOCH,BSTAR,MEAN_MOTION_DOT,MEAN_MOTION_DDOT
SIRION PATHFINDER-2,2018-099B,2026-06-19T16:36:57.825216,15.14565833,.00071576,97.4247,219.6903,293.9955,66.0528,0,U,43759,999,41300,.22349746E-3,.4059E-4,0
CORVUS BC4,2018-099K,2026-06-19T21:37:06.596256,15.12513050,.00080178,97.4063,213.8018,4.0881,356.0414,0,U,43767,999,41281,.175635E-3,.2997E-4,0
M2 PATHFINDER,2020-037E,2026-06-19T13:46:25.067136,15.04681666,.00125074,97.8143,1.8325,139.3083,220.9080,0,U,45727,999,32585,.89866121E-4,.1202E-4,0
NETSAT-4,2020-068U,2026-06-19T14:06:16.968096,15.43929403,.0003567,97.8605,179.0214,327.1442,32.9583,0,U,46504,999,31614,.3139725E-3,.1419E-3,0
NETSAT-3,2020-068V,2026-06-19T11:11:10.043808,15.42747216,.00038889,97.8655,177.1036,352.2858,7.8328,0,U,46505,999,31603,.37774208E-3,.1643E-3,0
NETSAT-1,2020-068W,2026-06-19T11:35:06.578592,15.34687263,.00047818,97.8748,171.4257,25.4867,334.6610,0,U,46506,999,31565,.30210764E-3,.10074E-3,0
NETSAT-2,2020-068X,2026-06-19T13:25:58.285632,15.46083868,.00031486,97.8616,178.8939,19.0109,341.1256,0,U,46507,999,31610,.393457E-3,.19174E-3,0
GREENCUBE (IO-117),2022-080E,2026-06-19T16:11:15.142848,6.42583159,.00088273,70.1442,297.3799,289.0639,70.9064,0,U,53109,999,9222,0,-.3E-7,0
SITRO-AIS 5 (KATYS),2023-091L,2026-06-19T22:46:01.553376,15.29509306,.00127157,97.5055,234.8746,94.9331,265.3361,0,U,57176,999,16476,.35273035E-3,.10039E-3,0
SITRO-AIS 6 (CHIRKIN),2023-091AC,2026-06-19T22:24:53.641152,15.25977127,.00130925,97.5062,233.9642,98.0849,262.1875,0,U,57192,999,16470,.32812022E-3,.8379E-4,0
SITRO-AIS 8 (ANOKHIN),2023-091AD,2026-06-19T21:29:32.243712,15.32198737,.00117347,97.5051,236.4207,91.7244,268.5341,0,U,57193,999,16486,.38755783E-3,.11999E-3,0
SITRO-AIS 7 (FARTUSHNIY),2023-091AE,2026-06-19T22:30:14.224896,15.25664309,.00129478,97.5059,233.7915,99.0103,261.2601,0,U,57194,999,16469,.31944695E-3,.8078E-4,0
SITRO-AIS 10 (BURDAEV),2023-091AK,2026-06-19T21:58:31.896480,15.38698938,.00073124,97.5076,241.5233,72.1725,288.0317,0,U,57199,999,16518,.43641538E-3,.16633E-3,0
SITRO-AIS 9 (SHCHUKIN),2023-091AM,2026-06-19T22:37:48.315648,15.38205091,.00075862,97.5074,241.2791,72.3569,287.8504,0,U,57201,999,16517,.44604437E-3,.16732E-3,0
SITRO-AIS 12 (SMIRENNIY),2023-091AQ,2026-06-19T22:23:32.659296,15.38498482,.0007088,97.5087,241.7378,67.2579,292.9414,0,U,57204,999,16519,.44213244E-3,.16741E-3,0
SITRO-AIS 11 (SHEFFER),2023-091AU,2026-06-19T22:41:46.152384,15.38924875,.00069992,97.5085,241.9991,67.2672,292.9312,0,U,57208,999,16521,.44495965E-3,.17085E-3,0
SITRO-AIS 25,2024-039R,2026-06-19T22:07:50.810304,14.93524962,.01431864,95.3912,236.9720,319.1139,39.9414,0,U,59066,999,12513,.17171175E-3,.2176E-4,0
SITRO-AIS 26,2024-039S,2026-06-19T22:10:21.654336,14.93320500,.01435414,95.3909,236.8703,319.6993,39.3661,0,U,59067,999,12512,.16604503E-3,.2093E-4,0
SITRO-AIS 27,2024-039T,2026-06-19T23:02:52.105056,14.93740595,.01425747,95.3913,237.1683,318.1693,40.8704,0,U,59068,999,12515,.14072016E-3,.1784E-4,0
SITRO-AIS 28,2024-039U,2026-06-19T22:30:17.979840,14.93774993,.01424508,95.3912,237.2002,318.0793,40.9594,0,U,59071,999,12515,.16575835E-3,.2109E-4,0
GRBBETA,2024-128C,2026-06-19T13:01:48.406368,15.06650427,.00403525,61.9881,208.0011,135.1213,225.3155,0,U,60237,999,10662,.15906067E-3,.2191E-4,0
OOV-CUBE (TUBSAT-30),2024-128F,2026-06-19T14:00:53.114976,15.02780984,.00443389,61.9930,217.2156,134.2886,226.1856,0,U,60240,999,10647,.11022768E-3,.1296E-4,0
ROBUSTA-3A (MEDITERRANEE),2024-128J,2026-06-19T09:12:43.855488,15.11694010,.00411361,61.9845,200.4756,128.3668,232.1135,0,U,60243,999,10675,.25696862E-3,.4256E-4,0
LASARSAT,2024-247Q,2026-06-19T11:53:29.592096,15.46491567,.00079381,44.9733,249.2437,344.7299,15.3350,0,U,62391,999,8367,.57165975E-3,.2878E-3,0
CROCUBE,2024-247T,2026-06-19T11:46:17.971392,15.48397693,.00077409,44.9701,246.5654,349.0739,10.9982,0,U,62394,999,8370,.60621754E-3,.32668E-3,0
FORESAIL-1 PRIME,2025-276DS,2026-06-19T10:25:32.106432,15.18719306,.00039613,97.4197,243.6644,98.6161,261.5522,0,U,66778,999,3074,.19871349E-3,.4058E-4,0
KNACKSAT-2,1998-067XZ,2026-06-19T14:13:09.931584,15.60167582,.00089348,51.6307,282.3774,225.7617,134.2643,0,U,67683,999,2065,.49084338E-3,.40473E-3,0
